start=new Date('2022-04-08T00:00:00.000Z').valueOf();
sats=[{"INCLINATION":"53.0538","PERIAPSIS":"546.151","BSTAR":"0.00327940000000","LAUNCH_DATE":"2021-02-16","CLASSIFICATION_TYPE":"U","EPHEMERIS_TYPE":"0","OBJECT_TYPE":"PAYLOAD","COUNTRY_CODE":"US","EPOCH":"2022-04-07T22:00:00.999936","NORAD_CAT_ID":"47632","TLE_LINE2":"2 47632  53.0538 284.1102 0001683  59.5121 341.3283 15.06366543  3597","APOAPSIS":"548.482","TLE_LINE1":"1 47632U 21012N   22097.91667824  .00048861  00000-0  32794-2 0  9995","CENTER_NAME":"EARTH","ARG_OF_PERICENTER":"59.5121","OBJECT_ID":"2021-012N","RCS_SIZE":"LARGE","MEAN_ANOMALY":"341.3283","GP_ID":"200700702","MEAN_ELEMENT_THEORY":"SGP4","SITE":"AFETR","PERIOD":"95.594","MEAN_MOTION_DOT":"0.00048861","MEAN_MOTION":"15.06366543","FILE":"3392478","ECCENTRICITY":"0.00016830","TIME_SYSTEM":"UTC","REF_FRAME":"TEME","ELEMENT_SET_NO":"999","RA_OF_ASC_NODE":"284.1102","REV_AT_EPOCH":"359","MEAN_MOTION_DDOT":"0.0000000000000","OBJECT_NAME":"STARLINK-1992","DECAY_DATE":null,"SEMIMAJOR_AXIS":"6925.451"},{"MEAN_MOTION":"15.06398615","SITE":"AFETR","PERIOD":"95.592","MEAN_MOTION_DOT":"0.00012198","GP_ID":"200665831","MEAN_ELEMENT_THEORY":"SGP4","OBJECT_ID":"2021-012P","MEAN_ANOMALY":"300.5523","RCS_SIZE":"LARGE","CENTER_NAME":"EARTH","ARG_OF_PERICENTER":"59.5609","TLE_LINE2":"2 47633  53.0549  22.9251 0001449  59.5609 300.5523 15.06398615 63544","APOAPSIS":"548.221","TLE_LINE1":"1 47633U 21012P   22097.06282183  .00012198  00000-0  83642-3 0  9996","NORAD_CAT_ID":"47633","OBJECT_TYPE":"PAYLOAD","COUNTRY_CODE":"US","EPOCH":"2022-04-07T01:30:27.806112","CLASSIFICATION_TYPE":"U","EPHEMERIS_TYPE":"0","LAUNCH_DATE":"2021-02-16","PERIAPSIS":"546.214","BSTAR":"0.00083642000000","INCLINATION":"53.0549","SEMIMAJOR_AXIS":"6925.353","DECAY_DATE":null,"OBJECT_NAME":"STARLINK-2009","MEAN_MOTION_DDOT":"0.0000000000000","REV_AT_EPOCH":"6354","RA_OF_ASC_NODE":"22.9251","ELEMENT_SET_NO":"999","REF_FRAME":"TEME","TIME_SYSTEM":"UTC","ECCENTRICITY":"0.00014490","FILE":"3391913"},{"RA_OF_ASC_NODE":"20.6456","MEAN_MOTION_DDOT":"0.0000000000000","REV_AT_EPOCH":"6361","OBJECT_NAME":"STARLINK-2010","SEMIMAJOR_AXIS":"6925.346","DECAY_DATE":null,"TIME_SYSTEM":"UTC","ECCENTRICITY":"0.00012420","FILE":"3391913","REF_FRAME":"TEME","ELEMENT_SET_NO":"999","CENTER_NAME":"EARTH","ARG_OF_PERICENTER":"71.2470","TLE_LINE2":"2 47634  53.0562  20.6456 0001242  71.2470 288.8654 15.06400677 63613","APOAPSIS":"548.072","TLE_LINE1":"1 47634U 21012Q   22097.57148440  .00000522  00000-0  53961-4 0  9990","OBJECT_ID":"2021-012Q","RCS_SIZE":"LARGE","MEAN_ANOMALY":"288.8654","SITE":"AFETR","PERIOD":"95.592","MEAN_MOTION_DOT":"0.00000522","GP_ID":"200665835","MEAN_ELEMENT_THEORY":"SGP4","MEAN_MOTION":"15.06400677","INCLINATION":"53.0562","PERIAPSIS":"546.351","BSTAR":"0.00005396100000","CLASSIFICATION_TYPE":"U","EPHEMERIS_TYPE":"0","LAUNCH_DATE":"2021-02-16","NORAD_CAT_ID":"47634","COUNTRY_CODE":"US","OBJECT_TYPE":"PAYLOAD","EPOCH":"2022-04-07T13:42:56.252160"},{"OBJECT_ID":"2021-012R","MEAN_ANOMALY":"228.6597","RCS_SIZE":"LARGE","CENTER_NAME":"EARTH","ARG_OF_PERICENTER":"66.9854","TLE_LINE2":"2 47635  53.0603 284.0060 0001497  66.9854 228.6597 15.06387962  3585","APOAPSIS":"548.287","TLE_LINE1":"1 47635U 21012R   22097.91667824  .00032776  00000-0  22098-2 0  9992","MEAN_MOTION":"15.06387962","SITE":"AFETR","MEAN_MOTION_DOT":"0.00032776","PERIOD":"95.593","GP_ID":"200699952","MEAN_ELEMENT_THEORY":"SGP4","PERIAPSIS":"546.214","BSTAR":"0.00220980000000","INCLINATION":"53.0603","NORAD_CAT_ID":"47635","COUNTRY_CODE":"US","OBJECT_TYPE":"PAYLOAD","EPOCH":"2022-04-07T22:00:00.999936","CLASSIFICATION_TYPE":"U","EPHEMERIS_TYPE":"0","LAUNCH_DATE":"2021-02-16","MEAN_MOTION_DDOT":"0.0000000000000","REV_AT_EPOCH":"358","RA_OF_ASC_NODE":"284.0060","SEMIMAJOR_AXIS":"6925.385","DECAY_DATE":null,"OBJECT_NAME":"STARLINK-2012","TIME_SYSTEM":"UTC","ECCENTRICITY":"0.00014970","FILE":"3392478","ELEMENT_SET_NO":"999","REF_FRAME":"TEME"},{"MEAN_MOTION":"15.06401551","GP_ID":"200700202","MEAN_ELEMENT_THEORY":"SGP4","SITE":"AFETR","MEAN_MOTION_DOT":"0.00002134","PERIOD":"95.592","OBJECT_ID":"2021-012S","MEAN_ANOMALY":"309.6755","RCS_SIZE":"LARGE","TLE_LINE2":"2 47636  53.0562 359.2217 0001029  50.4325 309.6755 15.06401551 64451","APOAPSIS":"547.921","TLE_LINE1":"1 47636U 21012S   22097.89031182  .00002134  00000-0  16208-3 0  9994","CENTER_NAME":"EARTH","ARG_OF_PERICENTER":"50.4325","OBJECT_TYPE":"PAYLOAD","COUNTRY_CODE":"US","EPOCH":"2022-04-07T21:22:02.941248","NORAD_CAT_ID":"47636","LAUNCH_DATE":"2021-02-16","CLASSIFICATION_TYPE":"U","EPHEMERIS_TYPE":"0","PERIAPSIS":"546.496","BSTAR":"0.00016208000000","INCLINATION":"53.0562","DECAY_DATE":null,"SEMIMAJOR_AXIS":"6925.344","OBJECT_NAME":"STARLINK-2013","REV_AT_EPOCH":"6445","MEAN_MOTION_DDOT":"0.0000000000000","RA_OF_ASC_NODE":"359.2217","REF_FRAME":"TEME","ELEMENT_SET_NO":"999","FILE":"3392478","ECCENTRICITY":"0.00010290","TIME_SYSTEM":"UTC"},{"TLE_LINE2":"2 47637  53.0558 359.3491 0001538  53.4246 306.6884 15.06407892 64467","APOAPSIS":"548.254","TLE_LINE1":"1 47637U 21012T   22097.86082560  .00005667  00000-0  39897-3 0  9991","ARG_OF_PERICENTER":"53.4246","CENTER_NAME":"EARTH","OBJECT_ID":"2021-012T","RCS_SIZE":"LARGE","MEAN_ANOMALY":"306.6884","GP_ID":"200701449","MEAN_ELEMENT_THEORY":"SGP4","SITE":"AFETR","MEAN_MOTION_DOT":"0.00005667","PERIOD":"95.592","MEAN_MOTION":"15.06407892","INCLINATION":"53.0558","PERIAPSIS":"546.124","BSTAR":"0.00039897000000","LAUNCH_DATE":"2021-02-16","CLASSIFICATION_TYPE":"U","EPHEMERIS_TYPE":"0","COUNTRY_CODE":"US","OBJECT_TYPE":"PAYLOAD","EPOCH":"2022-04-07T20:39:35.331840","NORAD_CAT_ID":"47637","RA_OF_ASC_NODE":"359.3491","REV_AT_EPOCH":"6446","MEAN_MOTION_DDOT":"0.0000000000000","OBJECT_NAME":"STARLINK-2014","DECAY_DATE":null,"SEMIMAJOR_AXIS":"6925.324","ECCENTRICITY":"0.00015380","FILE":"3392478","TIME_SYSTEM":"UTC","REF_FRAME":"TEME","ELEMENT_SET_NO":"999"},{"DECAY_DATE":null,"SEMIMAJOR_AXIS":"6925.328","OBJECT_NAME":"STARLINK-2015","REV_AT_EPOCH":"6548","MEAN_MOTION_DDOT":"0.0000000000000","RA_OF_ASC_NODE":"284.3791","REF_FRAME":"TEME","ELEMENT_SET_NO":"999","FILE":"3392478","ECCENTRICITY":"0.00013270","TIME_SYSTEM":"UTC","MEAN_MOTION":"15.06406627","MEAN_ELEMENT_THEORY":"SGP4","GP_ID":"200701704","MEAN_MOTION_DOT":"0.00000093","PERIOD":"95.592","SITE":"AFETR","MEAN_ANOMALY":"275.5571","RCS_SIZE":"LARGE","OBJECT_ID":"2021-012U","TLE_LINE1":"1 47638U 21012U   22097.85851867  .00000093  00000-0  25110-4 0  9997","APOAPSIS":"548.112","TLE_LINE2":"2 47638  53.0505 284.3791 0001327  84.5569 275.5571 15.06406627 65484","CENTER_NAME":"EARTH","ARG_OF_PERICENTER":"84.5569","EPOCH":"2022-04-07T20:36:16.013088","OBJECT_TYPE":"PAYLOAD","COUNTRY_CODE":"US","NORAD_CAT_ID":"47638","LAUNCH_DATE":"2021-02-16","EPHEMERIS_TYPE":"0","CLASSIFICATION_TYPE":"U","BSTAR":"0.00002511000000","PERIAPSIS":"546.274","INCLINATION":"53.0505"},{"RA_OF_ASC_NODE":"359.1465","MEAN_MOTION_DDOT":"0.0000000000000","REV_AT_EPOCH":"6444","OBJECT_NAME":"STARLINK-2016","SEMIMAJOR_AXIS":"6925.326","DECAY_DATE":null,"TIME_SYSTEM":"UTC","ECCENTRICITY":"0.00013740","FILE":"3392478","ELEMENT_SET_NO":"999","REF_FRAME":"TEME","CENTER_NAME":"EARTH","ARG_OF_PERICENTER":"65.4867","TLE_LINE2":"2 47639  53.0570 359.1465 0001374  65.4867 294.6265 15.06407494 64447","TLE_LINE1":"1 47639U 21012V   22097.90506139  .00005221  00000-0  36907-3 0  9996","APOAPSIS":"548.142","OBJECT_ID":"2021-012V","MEAN_ANOMALY":"294.6265","RCS_SIZE":"LARGE","SITE":"AFETR","MEAN_MOTION_DOT":"0.00005221","PERIOD":"95.592","GP_ID":"200700453","MEAN_ELEMENT_THEORY":"SGP4","MEAN_MOTION":"15.06407494","INCLINATION":"53.0570","PERIAPSIS":"546.239","BSTAR":"0.00036907000000","CLASSIFICATION_TYPE":"U","EPHEMERIS_TYPE":"0","LAUNCH_DATE":"2021-02-16","NORAD_CAT_ID":"47639","COUNTRY_CODE":"US","OBJECT_TYPE":"PAYLOAD","EPOCH":"2022-04-07T21:43:17.304096"},{"APOAPSIS":"548.275","TLE_LINE1":"1 47640U 21012W   22097.50144677  .00003796  00000-0  27354-3 0  9990","TLE_LINE2":"2 47640  53.0546  20.9580 0001548  61.2562 298.8582 15.06403572 63600","ARG_OF_PERICENTER":"61.2562","CENTER_NAME":"EARTH","RCS_SIZE":"LARGE","MEAN_ANOMALY":"298.8582","OBJECT_ID":"2021-012W","MEAN_ELEMENT_THEORY":"SGP4","GP_ID":"200666361","PERIOD":"95.592","MEAN_MOTION_DOT":"0.00003796","SITE":"AFETR","MEAN_MOTION":"15.06403572","INCLINATION":"53.0546","BSTAR":"0.00027354000000","PERIAPSIS":"546.131","LAUNCH_DATE":"2021-02-16","EPHEMERIS_TYPE":"0","CLASSIFICATION_TYPE":"U","EPOCH":"2022-04-07T12:02:05.000928","OBJECT_TYPE":"PAYLOAD","COUNTRY_CODE":"US","NORAD_CAT_ID":"47640","RA_OF_ASC_NODE":"20.9580","REV_AT_EPOCH":"6360","MEAN_MOTION_DDOT":"0.0000000000000","OBJECT_NAME":"STARLINK-2018","DECAY_DATE":null,"SEMIMAJOR_AXIS":"6925.338","ECCENTRICITY":"0.00015480","FILE":"3391924","TIME_SYSTEM":"UTC","REF_FRAME":"TEME","ELEMENT_SET_NO":"999"},{"OBJECT_ID":"2021-012X","MEAN_ANOMALY":"343.3132","RCS_SIZE":"LARGE","TLE_LINE2":"2 47641  53.0550 284.1010 0001499  52.3803 343.3132 15.06368674  3594","TLE_LINE1":"1 47641U 21012X   22097.91667824  .00048955  00000-0  32855-2 0  9997","APOAPSIS":"548.348","ARG_OF_PERICENTER":"52.3803","CENTER_NAME":"EARTH","MEAN_MOTION":"15.06368674","GP_ID":"200700949","MEAN_ELEMENT_THEORY":"SGP4","SITE":"AFETR","MEAN_MOTION_DOT":"0.00048955","PERIOD":"95.594","PERIAPSIS":"546.271","BSTAR":"0.00328550000000","INCLINATION":"53.0550","OBJECT_TYPE":"PAYLOAD","COUNTRY_CODE":"US","EPOCH":"2022-04-07T22:00:00.999936","NORAD_CAT_ID":"47641","LAUNCH_DATE":"2021-02-16","CLASSIFICATION_TYPE":"U","EPHEMERIS_TYPE":"0","REV_AT_EPOCH":"359","MEAN_MOTION_DDOT":"0.0000000000000","RA_OF_ASC_NODE":"284.1010","DECAY_DATE":null,"SEMIMAJOR_AXIS":"6925.445","OBJECT_NAME":"STARLINK-2019","FILE":"3392478","ECCENTRICITY":"0.00014990","TIME_SYSTEM":"UTC","ELEMENT_SET_NO":"999","REF_FRAME":"TEME"}];
